{
  "norad_id": 27426,
  "name": "DIRECTV 5 (TEMPO 1)",
  "history": [
    {
      "epoch": "2026-03-28T21:06:29.219040Z",
      "apogee_km": 35801.50067925571,
      "perigee_km": 35771.7542812102,
      "latitude_deg": -3.224233162504114,
      "longitude_deg": -109.98769917961343,
      "height_km": 35772.893640755916,
      "semi_major_axis_km": 42164.76448023295,
      "eccentricity": 0.00035274,
      "inclination_deg": 4.6738,
      "raan_deg": 76.2945,
      "arg_perigee_deg": 293.2554,
      "mean_anomaly_deg": 23.2496,
      "mean_motion_rev_day": 1.00271669
    },
    {
      "epoch": "2026-03-29T02:14:29.601024Z",
      "apogee_km": 35801.52994993174,
      "perigee_km": 35771.69417349567,
      "latitude_deg": 2.5763941386886473,
      "longitude_deg": -110.14648288045068,
      "height_km": 35788.432958332596,
      "semi_major_axis_km": 42164.74906171371,
      "eccentricity": 0.0003538,
      "inclination_deg": 4.6743,
      "raan_deg": 76.2922,
      "arg_perigee_deg": 293.7781,
      "mean_anomaly_deg": 99.9415,
      "mean_motion_rev_day": 1.00271724
    },
    {
      "epoch": "2026-03-30T02:12:02.892096Z",
      "apogee_km": 35801.50876608469,
      "perigee_km": 35771.563415255696,
      "latitude_deg": 2.6025727305637867,
      "longitude_deg": -110.14732255598942,
      "height_km": 35787.84429266843,
      "semi_major_axis_km": 42164.6730906702,
      "eccentricity": 0.0003551,
      "inclination_deg": 4.6772,
      "raan_deg": 76.2765,
      "arg_perigee_deg": 296.1831,
      "mean_anomaly_deg": 97.9255,
      "mean_motion_rev_day": 1.00271995
    },
    {
      "epoch": "2026-03-30T10:45:23.723136Z",
      "apogee_km": 35801.46011560067,
      "perigee_km": 35771.62944653419,
      "latitude_deg": 1.400684723589128,
      "longitude_deg": -110.07230972372633,
      "height_km": 35796.11971930592,
      "semi_major_axis_km": 42164.68178106743,
      "eccentricity": 0.00035374,
      "inclination_deg": 4.6783,
      "raan_deg": 76.2718,
      "arg_perigee_deg": 296.0136,
      "mean_anomaly_deg": 226.7885,
      "mean_motion_rev_day": 1.00271964
    },
    {
      "epoch": "2026-03-30T21:01:32.021184Z",
      "apogee_km": 35801.64281995338,
      "perigee_km": 35771.45459157548,
      "latitude_deg": -3.181202287293799,
      "longitude_deg": -109.99298411135851,
      "height_km": 35772.18719165818,
      "semi_major_axis_km": 42164.68570576443,
      "eccentricity": 0.00035798,
      "inclination_deg": 4.6793,
      "raan_deg": 76.2674,
      "arg_perigee_deg": 298.3094,
      "mean_anomaly_deg": 18.9528,
      "mean_motion_rev_day": 1.0027195
    },
    {
      "epoch": "2026-03-31T15:28:19.304832Z",
      "apogee_km": 35801.75258901173,
      "perigee_km": 35771.225399791794,
      "latitude_deg": -3.7977640240949353,
      "longitude_deg": -110.227340936884,
      "height_km": 35780.288937955505,
      "semi_major_axis_km": 42164.625994401766,
      "eccentricity": 0.000362,
      "inclination_deg": 4.681,
      "raan_deg": 76.262,
      "arg_perigee_deg": 300.6405,
      "mean_anomaly_deg": 294.0833,
      "mean_motion_rev_day": 1.00272163
    },
    {
      "epoch": "2026-04-01T14:19:49.822752Z",
      "apogee_km": 35801.89157075696,
      "perigee_km": 35770.98493709583,
      "latitude_deg": -2.891805521585681,
      "longitude_deg": -110.23403961475546,
      "height_km": 35784.85375777093,
      "semi_major_axis_km": 42164.5752539264,
      "eccentricity": 0.0003665,
      "inclination_deg": 4.6833,
      "raan_deg": 76.2495,
      "arg_perigee_deg": 303.0586,
      "mean_anomaly_deg": 275.4954,
      "mean_motion_rev_day": 1.00272344
    },
    {
      "epoch": "2026-04-02T15:21:20.778048Z",
      "apogee_km": 35802.03420777692,
      "perigee_km": 35770.739698099045,
      "latitude_deg": -3.81277882490469,
      "longitude_deg": -110.22993849788384,
      "height_km": 35781.25118226908,
      "semi_major_axis_km": 42164.52395293798,
      "eccentricity": 0.0003711,
      "inclination_deg": 4.6859,
      "raan_deg": 76.2366,
      "arg_perigee_deg": 305.6701,
      "mean_anomaly_deg": 289.306,
      "mean_motion_rev_day": 1.00272527
    },
    {
      "epoch": "2026-04-02T20:54:06.406272Z",
      "apogee_km": 35802.07232674397,
      "perigee_km": 35770.67578852024,
      "latitude_deg": -3.1110230548339732,
      "longitude_deg": -109.99859474534966,
      "height_km": 35770.9215103224,
      "semi_major_axis_km": 42164.51105763211,
      "eccentricity": 0.00037231,
      "inclination_deg": 4.6864,
      "raan_deg": 76.2337,
      "arg_perigee_deg": 306.2024,
      "mean_anomaly_deg": 12.1948,
      "mean_motion_rev_day": 1.00272573
    },
    {
      "epoch": "2026-04-03T14:00:52.913664Z",
      "apogee_km": 35802.18442617669,
      "perigee_km": 35770.493606002994,
      "latitude_deg": -2.717649322404354,
      "longitude_deg": -110.23173426419545,
      "height_km": 35786.77516318314,
      "semi_major_axis_km": 42164.476016089844,
      "eccentricity": 0.0003758,
      "inclination_deg": 4.6882,
      "raan_deg": 76.2246,
      "arg_perigee_deg": 307.8183,
      "mean_anomaly_deg": 267.9872,
      "mean_motion_rev_day": 1.00272698
    },
    {
      "epoch": "2026-04-04T01:59:41.518752Z",
      "apogee_km": 35802.26109149829,
      "perigee_km": 35770.36031365547,
      "latitude_deg": 2.738119850548075,
      "longitude_deg": -110.1475600638385,
      "height_km": 35784.68608962931,
      "semi_major_axis_km": 42164.44770257688,
      "eccentricity": 0.00037829,
      "inclination_deg": 4.6893,
      "raan_deg": 76.2183,
      "arg_perigee_deg": 309.0319,
      "mean_anomaly_deg": 86.9757,
      "mean_motion_rev_day": 1.00272799
    },
    {
      "epoch": "2026-04-05T12:52:29.859744Z",
      "apogee_km": 35802.434929368115,
      "perigee_km": 35770.08387458474,
      "latitude_deg": -1.6371484627211714,
      "longitude_deg": -110.19695575129349,
      "height_km": 35791.90747074653,
      "semi_major_axis_km": 42164.39640197643,
      "eccentricity": 0.00038363,
      "inclination_deg": 4.6928,
      "raan_deg": 76.1995,
      "arg_perigee_deg": 312.1056,
      "mean_anomaly_deg": 248.5609,
      "mean_motion_rev_day": 1.00272982
    },
    {
      "epoch": "2026-04-05T13:55:59.253024Z",
      "apogee_km": 35802.43760043759,
      "perigee_km": 35770.08064285384,
      "latitude_deg": -2.7754463444879147,
      "longitude_deg": -110.2284704102588,
      "height_km": 35787.72906496692,
      "semi_major_axis_km": 42164.39612164572,
      "eccentricity": 0.0003837,
      "inclination_deg": 4.6929,
      "raan_deg": 76.199,
      "arg_perigee_deg": 312.1695,
      "mean_anomaly_deg": 264.4136,
      "mean_motion_rev_day": 1.00272983
    },
    {
      "epoch": "2026-04-06T01:54:46.063584Z",
      "apogee_km": 35802.472501047836,
      "perigee_km": 35770.00761728736,
      "latitude_deg": 2.795414128042522,
      "longitude_deg": -110.14220239574757,
      "height_km": 35783.61683072766,
      "semi_major_axis_km": 42164.3770591676,
      "eccentricity": 0.00038498,
      "inclination_deg": 4.694,
      "raan_deg": 76.1925,
      "arg_perigee_deg": 313.2525,
      "mean_anomaly_deg": 83.5258,
      "mean_motion_rev_day": 1.00273051
    },
    {
      "epoch": "2026-04-07T13:51:00.898272Z",
      "apogee_km": 35801.60432851733,
      "perigee_km": 35771.00137807181,
      "latitude_deg": -2.8303509399418902,
      "longitude_deg": -110.23218916983608,
      "height_km": 35785.75405152425,
      "semi_major_axis_km": 42164.43985329457,
      "eccentricity": 0.0003629,
      "inclination_deg": 4.6976,
      "raan_deg": 76.1729,
      "arg_perigee_deg": 305.5853,
      "mean_anomaly_deg": 271.745,
      "mean_motion_rev_day": 1.00272827
    },
    {
      "epoch": "2026-04-07T13:51:00.899136Z",
      "apogee_km": 35801.60390687292,
      "perigee_km": 35771.00179971621,
      "latitude_deg": -2.830351014885177,
      "longitude_deg": -110.23219163040197,
      "height_km": 35785.75406421628,
      "semi_major_axis_km": 42164.43985329457,
      "eccentricity": 0.00036289,
      "inclination_deg": 4.6976,
      "raan_deg": 76.1729,
      "arg_perigee_deg": 305.5853,
      "mean_anomaly_deg": 271.745,
      "mean_motion_rev_day": 1.00272827
    },
    {
      "epoch": "2026-04-08T13:48:33.390144Z",
      "apogee_km": 35801.53457602694,
      "perigee_km": 35771.34305316066,
      "latitude_deg": -2.8574822902886488,
      "longitude_deg": -110.23139960274175,
      "height_km": 35786.253149997785,
      "semi_major_axis_km": 42164.5758145938,
      "eccentricity": 0.00035802,
      "inclination_deg": 4.7,
      "raan_deg": 76.1601,
      "arg_perigee_deg": 307.3157,
      "mean_anomaly_deg": 270.398,
      "mean_motion_rev_day": 1.00272342
    },
    {
      "epoch": "2026-04-09T12:03:24.939072Z",
      "apogee_km": 35801.45685000439,
      "perigee_km": 35771.423021852934,
      "latitude_deg": -0.9921228335327036,
      "longitude_deg": -110.17267032649247,
      "height_km": 35792.76495570538,
      "semi_major_axis_km": 42164.576935928664,
      "eccentricity": 0.00035615,
      "inclination_deg": 4.7022,
      "raan_deg": 76.1481,
      "arg_perigee_deg": 308.7327,
      "mean_anomaly_deg": 243.6231,
      "mean_motion_rev_day": 1.00272338
    },
    {
      "epoch": "2026-04-10T12:00:58.555008Z",
      "apogee_km": 35801.391745462126,
      "perigee_km": 35771.51391710768,
      "latitude_deg": -1.0227678833120288,
      "longitude_deg": -110.17263505660316,
      "height_km": 35793.009121408686,
      "semi_major_axis_km": 42164.58983128491,
      "eccentricity": 0.0003543,
      "inclination_deg": 4.7046,
      "raan_deg": 76.1354,
      "arg_perigee_deg": 310.2628,
      "mean_anomaly_deg": 242.4814,
      "mean_motion_rev_day": 1.00272292
    }
  ]
}